{
  "type": "FeatureCollection",
  "features": [
    {
      "type": "Feature",
      "properties": {
        "norad_id": 66537,
        "name": "STARLINK-35582",
        "group": "last-30-days",
        "lat": -11.879701980079197,
        "lon": -62.21116779466536,
        "alt_km": 345.5918074861347,
        "timestamp": "2025-12-04T03:47:53.336412+00:00",
        "meta_object_name": "STARLINK-35582",
        "meta_object_id": "2025-265X",
        "meta_epoch": "2025-12-03T12:00:02.998944",
        "meta_mean_motion": 15.75030441,
        "meta_eccentricity": 0.0001476,
        "meta_inclination": 43,
        "meta_ra_of_asc_node": 108.736,
        "meta_arg_of_pericenter": 273.6862,
        "meta_mean_anomaly": 147.0807,
        "meta_ephemeris_type": 0,
        "meta_classification_type": "U",
        "meta_norad_cat_id": 66537,
        "meta_element_set_no": 999,
        "meta_rev_at_epoch": 351,
        "meta_bstar": -6.1849e-05,
        "meta_mean_motion_dot": -9.963e-05,
        "meta_mean_motion_ddot": 0,
        "tle_line1": "1 66537U 25265X   25337.50003471 -.00009963  00000+0 -61849-4 0  9997",
        "tle_line2": "2 66537  43.0000 108.7360 0001476 273.6862 147.0807 15.75030441  3519"
      },
      "geometry": {
        "type": "Point",
        "coordinates": [
          -62.21116779466536,
          -11.879701980079197
        ]
      }
    },
    {
      "type": "Feature",
      "properties": {
        "norad_id": 66538,
        "name": "STARLINK-35577",
        "group": "last-30-days",
        "lat": -13.144651614289012,
        "lon": -60.74956304432735,
        "alt_km": 345.63248692842717,
        "timestamp": "2025-12-04T03:47:53.336422+00:00",
        "meta_object_name": "STARLINK-35577",
        "meta_object_id": "2025-265Y",
        "meta_epoch": "2025-12-03T12:00:02.998944",
        "meta_mean_motion": 15.75047233,
        "meta_eccentricity": 0.0001476,
        "meta_inclination": 42.9999,
        "meta_ra_of_asc_node": 108.7309,
        "meta_arg_of_pericenter": 267.5102,
        "meta_mean_anomaly": 155.1679,
        "meta_ephemeris_type": 0,
        "meta_classification_type": "U",
        "meta_norad_cat_id": 66538,
        "meta_element_set_no": 999,
        "meta_rev_at_epoch": 351,
        "meta_bstar": -0.0002298,
        "meta_mean_motion_dot": -0.0003564,
        "meta_mean_motion_ddot": 0,
        "tle_line1": "1 66538U 25265Y   25337.50003471 -.00035640  00000+0 -22980-3 0  9991",
        "tle_line2": "2 66538  42.9999 108.7309 0001476 267.5102 155.1679 15.75047233  3511"
      },
      "geometry": {
        "type": "Point",
        "coordinates": [
          -60.74956304432735,
          -13.144651614289012
        ]
      }
    },
    {
      "type": "Feature",
      "properties": {
        "norad_id": 66539,
        "name": "STARLINK-35697",
        "group": "last-30-days",
        "lat": -14.387526659752412,
        "lon": -59.28911590273126,
        "alt_km": 345.7798020138662,
        "timestamp": "2025-12-04T03:47:53.336431+00:00",
        "meta_object_name": "STARLINK-35697",
        "meta_object_id": "2025-265Z",
        "meta_epoch": "2025-12-03T12:00:02.998944",
        "meta_mean_motion": 15.75069469,
        "meta_eccentricity": 0.000154,
        "meta_inclination": 43,
        "meta_ra_of_asc_node": 108.7258,
        "meta_arg_of_pericenter": 265.0757,
        "meta_mean_anomaly": 159.5147,
        "meta_ephemeris_type": 0,
        "meta_classification_type": "U",
        "meta_norad_cat_id": 66539,
        "meta_element_set_no": 999,
        "meta_rev_at_epoch": 351,
        "meta_bstar": -0.00053939,
        "meta_mean_motion_dot": -0.00082635,
        "meta_mean_motion_ddot": 0,
        "tle_line1": "1 66539U 25265Z   25337.50003471 -.00082635  00000+0 -53939-3 0  9996",
        "tle_line2": "2 66539  43.0000 108.7258 0001540 265.0757 159.5147 15.75069469  3514"
      },
      "geometry": {
        "type": "Point",
        "coordinates": [
          -59.28911590273126,
          -14.387526659752412
        ]
      }
    },
    {
      "type": "Feature",
      "properties": {
        "norad_id": 66540,
        "name": "STARLINK-35818",
        "group": "last-30-days",
        "lat": -15.640568728294108,
        "lon": -57.78806321377941,
        "alt_km": 345.7342093146799,
        "timestamp": "2025-12-04T03:47:53.336441+00:00",
        "meta_object_name": "STARLINK-35818",
        "meta_object_id": "2025-265AA",
        "meta_epoch": "2025-12-03T12:00:02.998944",
        "meta_mean_motion": 15.75077127,
        "meta_eccentricity": 0.0001571,
        "meta_inclination": 42.9997,
        "meta_ra_of_asc_node": 108.7214,
        "meta_arg_of_pericenter": 256.1828,
        "meta_mean_anomaly": 170.3272,
        "meta_ephemeris_type": 0,
        "meta_classification_type": "U",
        "meta_norad_cat_id": 66540,
        "meta_element_set_no": 999,
        "meta_rev_at_epoch": 351,
        "meta_bstar": -0.00061719,
        "meta_mean_motion_dot": -0.00094388,
        "meta_mean_motion_ddot": 0,
        "tle_line1": "1 66540U 25265AA  25337.50003471 -.00094388  00000+0 -61719-3 0  9991",
        "tle_line2": "2 66540  42.9997 108.7214 0001571 256.1828 170.3272 15.75077127  3515"
      },
      "geometry": {
        "type": "Point",
        "coordinates": [
          -57.78806321377941,
          -15.640568728294108
        ]
      }
    },
    {
      "type": "Feature",
      "properties": {
        "norad_id": 66541,
        "name": "STARLINK-35796",
        "group": "last-30-days",
        "lat": -16.878199490161816,
        "lon": -56.27543661656777,
        "alt_km": 345.70939514075144,
        "timestamp": "2025-12-04T03:47:53.336469+00:00",
        "meta_object_name": "STARLINK-35796",
        "meta_object_id": "2025-265AB",
        "meta_epoch": "2025-12-03T12:00:02.998944",
        "meta_mean_motion": 15.75077106,
        "meta_eccentricity": 0.000163,
        "meta_inclination": 42.9999,
        "meta_ra_of_asc_node": 108.7166,
        "meta_arg_of_pericenter": 250.2478,
        "meta_mean_anomaly": 178.175,
        "meta_ephemeris_type": 0,
        "meta_classification_type": "U",
        "meta_norad_cat_id": 66541,
        "meta_element_set_no": 999,
        "meta_rev_at_epoch": 351,
        "meta_bstar": -0.00062217,
        "meta_mean_motion_dot": -0.00095137,
        "meta_mean_motion_ddot": 0,
        "tle_line1": "1 66541U 25265AB  25337.50003471 -.00095137  00000+0 -62217-3 0  9999",
        "tle_line2": "2 66541  42.9999 108.7166 0001630 250.2478 178.1750 15.75077106  3510"
      },
      "geometry": {
        "type": "Point",
        "coordinates": [
          -56.27543661656777,
          -16.878199490161816
        ]
      }
    },
    {
      "type": "Feature",
      "properties": {
        "norad_id": 66542,
        "name": "STARLINK-35833",
        "group": "last-30-days",
        "lat": -18.112698747911754,
        "lon": -54.73201306736962,
        "alt_km": 346.22739841159455,
        "timestamp": "2025-12-04T03:47:53.336481+00:00",
        "meta_object_name": "STARLINK-35833",
        "meta_object_id": "2025-265AC",
        "meta_epoch": "2025-12-03T12:00:02.998944",
        "meta_mean_motion": 15.75067121,
        "meta_eccentricity": 0.0001502,
        "meta_inclination": 42.9999,
        "meta_ra_of_asc_node": 108.7122,
        "meta_arg_of_pericenter": 277.217,
        "meta_mean_anomaly": 153.1242,
        "meta_ephemeris_type": 0,
        "meta_classification_type": "U",
        "meta_norad_cat_id": 66542,
        "meta_element_set_no": 999,
        "meta_rev_at_epoch": 351,
        "meta_bstar": -0.0004836,
        "meta_mean_motion_dot": -0.00074203,
        "meta_mean_motion_ddot": 0,
        "tle_line1": "1 66542U 25265AC  25337.50003471 -.00074203  00000+0 -48360-3 0  9994",
        "tle_line2": "2 66542  42.9999 108.7122 0001502 277.2170 153.1242 15.75067121  3514"
      },
      "geometry": {
        "type": "Point",
        "coordinates": [
          -54.73201306736962,
          -18.112698747911754
        ]
      }
    },
    {
      "type": "Feature",
      "properties": {
        "norad_id": 66543,
        "name": "STARLINK-35315",
        "group": "last-30-days",
        "lat": -19.34692535217068,
        "lon": -53.15193209629742,
        "alt_km": 346.0757027723339,
        "timestamp": "2025-12-04T03:47:53.336493+00:00",
        "meta_object_name": "STARLINK-35315",
        "meta_object_id": "2025-265AD",
        "meta_epoch": "2025-12-03T12:00:02.998944",
        "meta_mean_motion": 15.75049739,
        "meta_eccentricity": 0.000141,
        "meta_inclination": 42.9998,
        "meta_ra_of_asc_node": 108.7066,
        "meta_arg_of_pericenter": 267.4988,
        "meta_mean_anomaly": 164.7647,
        "meta_ephemeris_type": 0,
        "meta_classification_type": "U",
        "meta_norad_cat_id": 66543,
        "meta_element_set_no": 999,
        "meta_rev_at_epoch": 340,
        "meta_bstar": -0.00022623,
        "meta_mean_motion_dot": -0.000351,
        "meta_mean_motion_ddot": 0,
        "tle_line1": "1 66543U 25265AD  25337.50003471 -.00035100  00000+0 -22623-3 0  9992",
        "tle_line2": "2 66543  42.9998 108.7066 0001410 267.4988 164.7647 15.75049739  3407"
      },
      "geometry": {
        "type": "Point",
        "coordinates": [
          -53.15193209629742,
          -19.34692535217068
        ]
      }
    }
  ]
}